STARLINK-37047          
1 68957U 26099G   26199.21748654  .00010033  00000+0  30775-3 0  9996
2 68957  53.1581  16.4438 0002482  82.0860 278.0424 15.34391992 12035
STARLINK-36242          
1 68958U 26099H   26199.21537845  .00010233  00000+0  31367-3 0  9995
2 68958  53.1594  16.4091 0001142  92.7956 267.3177 15.34391852 12032
STARLINK-37033          
1 68959U 26099J   26199.21327243  .00005482  00000+0  17326-3 0  9994
2 68959  53.1599  16.4130 0001086  96.2092 263.9035 15.34397683 12032
STARLINK-36978          
1 68960U 26099K   26198.82035106  .00011549  00000+0  35239-3 0  9990
2 68960  53.1601  18.2288 0001081  98.2048 261.9077 15.34402545 11970
STARLINK-36965          
1 68961U 26099L   26198.88338385  .00009638  00000+0  29601-3 0  9994
2 68961  53.1605  17.9081 0000992 102.1997 257.9117 15.34400179 11982
STARLINK-36765          
1 68962U 26099M   26199.20695964  .00003854  00000+0  12515-3 0  9991
2 68962  53.1605  16.3543 0001579  89.0080 271.1103 15.34394331 12039
STARLINK-36764          
1 68963U 26099N   26198.87917361  .00008388  00000+0  25909-3 0  9990
2 68963  53.1597  17.8629 0001213  94.6326 265.4815 15.34400560 11982
STARLINK-36731          
1 68964U 26099P   26199.20275131  .00006756  00000+0  21096-3 0  9991
2 68964  53.1612  16.3220 0001550  83.1676 276.9503 15.34390845 12039
STARLINK-36664          
1 68965U 26099Q   26198.87496502  .00010878  00000+0  33259-3 0  9995
2 68965  53.1603  17.8314 0001178  97.6936 262.4200 15.34402478 11988
STARLINK-36402          
1 68966U 26099R   26199.19854371  .00008359  00000+0  25832-3 0  9993
2 68966  53.1587  16.3062 0001482  87.8352 272.2820 15.34393765 12037
STARLINK-36671          
1 68967U 26099S   26199.18576142  .00006836  00000+0  21897-3 0  9995
2 68967  53.1574  16.2076 0001185  84.1529 275.9608 15.33553727 12033
STARLINK-36665          
1 68968U 26099T   26198.93378938  .00009825  00000+0  30154-3 0  9998
2 68968  53.1605  17.4890 0001328 106.5482 253.5666 15.34399161 11993
STARLINK-36303          
1 68969U 26099U   26198.92362438  .00011537  00000+0  36147-3 0  9997
2 68969  53.1587  17.4168 0001029  93.8148 266.2972 15.33557326 11995
STARLINK-37257          
1 68970U 26099V   26198.92958379  .00010118  00000+0  31026-3 0  9999
2 68970  53.1583  17.4684 0001029  79.4405 280.6714 15.34392557 11990
STARLINK-37367          
1 68971U 26099W   26199.18802498  .00011161  00000+0  34104-3 0  9998
2 68971  53.1579  16.2439 0001031  83.4285 276.6835 15.34391669 12033
STARLINK-37259          
1 68972U 26099X   26199.18591693  .00010650  00000+0  32588-3 0  9997
2 68972  53.1588  16.2320 0001047  97.7006 262.4115 15.34399714 12032
STARLINK-37387          
1 68973U 26099Y   26198.90643827  .00012616  00000+0  38382-3 0  9996
2 68973  53.1597  17.3394 0001630  76.5903 283.5281 15.34405232 11990
STARLINK-37362          
1 68974U 26099Z   26198.79300051  .00008221  00000+0  25425-3 0  9994
2 68974  53.1585  18.0441 0000878  85.1350 274.9753 15.34389586 11973
STARLINK-36667          
1 68975U 26099AA  26198.92116561  .00010192  00000+0  31239-3 0  9991
2 68975  53.1585  17.4116 0000997  80.3830 279.7285 15.34396767 11992
STARLINK-36735          
1 68976U 26099AB  26198.91906159  .00011390  00000+0  34774-3 0  9999
2 68976  53.1582  17.3981 0001116  85.6282 274.4848 15.34398176 11995
STARLINK-37371          
1 68977U 26099AC  26198.91695784  .00008297  00000+0  25632-3 0  9994
2 68977  53.1594  17.3763 0001102  79.2307 280.8820 15.34412352 11993
STARLINK-37293          
1 68978U 26099AD  26198.78458421  .00015488  00000+0  46855-3 0  9995
2 68978  53.1593  17.9789 0001214  62.5788 297.5338 15.34401656 11971
STARLINK-36248          
1 68979U 26099AE  26198.91274670  .00010011  00000+0  30700-3 0  9992
2 68979  53.1601  17.3619 0001101  93.0743 267.0385 15.34403246 11996
PEARL-1B                
1 68980U 26100A   26198.98957910  .00001027  00000+0  11025-3 0  9995
2 68980  97.7328  95.7300 0008582  52.9542 307.2460 14.90671488 11274
IRIDE-MS2-HEO-7         
1 68981U 26100B   26199.16543799  .00000540  00000+0  60014-4 0  9995
2 68981  97.7325  95.9587 0006352  55.6092 304.5727 14.91082830 11313
IRIDE-MS2-HEO-10        
1 68982U 26100C   26199.15794769  .00000541  00000+0  59950-4 0  9998
2 68982  97.7297  95.9464 0005688  63.3086 296.8714 14.91234819 11311
IRIDE-MS2-HEO-11        
1 68983U 26100D   26199.15086590  .00000582  00000+0  64194-4 0  9996
2 68983  97.7346  95.9950 0004726  70.2616 289.9112 14.91148267 11311
IRIDE-MS2-HEO-12        
1 68984U 26100E   26198.95887640  .00000525  00000+0  58691-4 0  9991
2 68984  97.7338  95.7517 0005723  72.6868 287.4976 14.90959126 11283
IRIDE-MS2-HEO-13        
1 68985U 26100F   26198.99730996  .00002188  00000+0  22320-3 0  9993
2 68985  97.7329  95.8777 0003184  54.1193 306.0321 14.91669389 11291
IRIDE-MS2-HEO-14        
1 68986U 26100G   26199.12783457  .00000853  00000+0  90422-4 0  9996
2 68986  97.7325  96.0081 0003201  39.1930 320.9520 14.91617875 11313
