OBJECT_NAME,OBJECT_ID,EPOCH,MEAN_MOTION,ECCENTRICITY,INCLINATION,RA_OF_ASC_NODE,ARG_OF_PERICENTER,MEAN_ANOMALY,EPHEMERIS_TYPE,CLASSIFICATION_TYPE,NORAD_CAT_ID,ELEMENT_SET_NO,REV_AT_EPOCH,BSTAR,MEAN_MOTION_DOT,MEAN_MOTION_DDOT
STARLINK-37047,2026-099G,2026-07-18T05:13:10.837056,15.34391992,.00024823,53.1581,16.4438,82.0860,278.0424,0,U,68957,999,1203,.30774677E-3,.10033E-3,0
STARLINK-36242,2026-099H,2026-07-18T05:10:08.698080,15.34391852,.00011423,53.1594,16.4091,92.7956,267.3177,0,U,68958,999,1203,.31366994E-3,.10233E-3,0
STARLINK-37033,2026-099J,2026-07-18T05:07:06.737952,15.34397683,.00010864,53.1599,16.4130,96.2092,263.9035,0,U,68959,999,1203,.17326094E-3,.5482E-4,0
STARLINK-36978,2026-099K,2026-07-17T19:41:18.331584,15.34402545,.00010814,53.1601,18.2288,98.2048,261.9077,0,U,68960,999,1197,.35239414E-3,.11549E-3,0
STARLINK-36965,2026-099L,2026-07-17T21:12:04.364640,15.34400179,.00009925,53.1605,17.9081,102.1997,257.9117,0,U,68961,999,1198,.29600828E-3,.9638E-4,0
STARLINK-36765,2026-099M,2026-07-18T04:58:01.312896,15.34394331,.00015793,53.1605,16.3543,89.0080,271.1103,0,U,68962,999,1203,.1251524E-3,.3854E-4,0
STARLINK-36764,2026-099N,2026-07-17T21:06:00.599904,15.34400560,.00012135,53.1597,17.8629,94.6326,265.4815,0,U,68963,999,1198,.2590936E-3,.8388E-4,0
STARLINK-36731,2026-099P,2026-07-18T04:51:57.713184,15.34390845,.00015501,53.1612,16.3220,83.1676,276.9503,0,U,68964,999,1203,.21095634E-3,.6756E-4,0
STARLINK-36664,2026-099Q,2026-07-17T20:59:56.977728,15.34402478,.0001178,53.1603,17.8314,97.6936,262.4200,0,U,68965,999,1198,.33259244E-3,.10878E-3,0
STARLINK-36402,2026-099R,2026-07-18T04:45:54.176544,15.34393765,.0001482,53.1587,16.3062,87.8352,272.2820,0,U,68966,999,1203,.25832015E-3,.8359E-4,0
STARLINK-36671,2026-099S,2026-07-18T04:27:29.786688,15.33553727,.00011855,53.1574,16.2076,84.1529,275.9608,0,U,68967,999,1203,.21896729E-3,.6836E-4,0
STARLINK-36665,2026-099T,2026-07-17T22:24:39.402432,15.34399161,.00013284,53.1605,17.4890,106.5482,253.5666,0,U,68968,999,1199,.30154147E-3,.9825E-4,0
STARLINK-36303,2026-099U,2026-07-17T22:10:01.146432,15.33557326,.00010297,53.1587,17.4168,93.8148,266.2972,0,U,68969,999,1199,.36147394E-3,.11537E-3,0
STARLINK-37257,2026-099V,2026-07-17T22:18:36.039456,15.34392557,.00010294,53.1583,17.4684,79.4405,280.6714,0,U,68970,999,1199,.31026115E-3,.10118E-3,0
STARLINK-37367,2026-099W,2026-07-18T04:30:45.358272,15.34391669,.00010319,53.1579,16.2439,83.4285,276.6835,0,U,68971,999,1203,.34103954E-3,.11161E-3,0
STARLINK-37259,2026-099X,2026-07-18T04:27:43.222752,15.34399714,.00010475,53.1588,16.2320,97.7006,262.4115,0,U,68972,999,1203,.32587556E-3,.1065E-3,0
STARLINK-37387,2026-099Y,2026-07-17T21:45:16.266528,15.34405232,.00016305,53.1597,17.3394,76.5903,283.5281,0,U,68973,999,1199,.38382272E-3,.12616E-3,0
STARLINK-37362,2026-099Z,2026-07-17T19:01:55.244064,15.34389586,.0000878,53.1585,18.0441,85.1350,274.9753,0,U,68974,999,1197,.25424607E-3,.8221E-4,0
STARLINK-36667,2026-099AA,2026-07-17T22:06:28.708704,15.34396767,.00009979,53.1585,17.4116,80.3830,279.7285,0,U,68975,999,1199,.31239348E-3,.10192E-3,0
STARLINK-36735,2026-099AB,2026-07-17T22:03:26.921376,15.34398176,.00011162,53.1582,17.3981,85.6282,274.4848,0,U,68976,999,1199,.34774219E-3,.1139E-3,0
STARLINK-37371,2026-099AC,2026-07-17T22:00:25.157376,15.34412352,.00011029,53.1594,17.3763,79.2307,280.8820,0,U,68977,999,1199,.25631574E-3,.8297E-4,0
STARLINK-37293,2026-099AD,2026-07-17T18:49:48.075744,15.34401656,.00012149,53.1593,17.9789,62.5788,297.5338,0,U,68978,999,1197,.4685472E-3,.15488E-3,0
STARLINK-36248,2026-099AE,2026-07-17T21:54:21.314880,15.34403246,.00011013,53.1601,17.3619,93.0743,267.0385,0,U,68979,999,1199,.30699722E-3,.10011E-3,0
PEARL-1B,2026-100A,2026-07-17T23:44:59.634240,14.90671488,.00085826,97.7328,95.7300,52.9542,307.2460,0,U,68980,999,1127,.11025118E-3,.1027E-4,0
IRIDE-MS2-HEO-7,2026-100B,2026-07-18T03:58:13.842336,14.91082830,.00063529,97.7325,95.9587,55.6092,304.5727,0,U,68981,999,1131,.60014456E-4,.54E-5,0
IRIDE-MS2-HEO-10,2026-100C,2026-07-18T03:47:26.680416,14.91234819,.00056889,97.7297,95.9464,63.3086,296.8714,0,U,68982,999,1131,.59949894E-4,.541E-5,0
IRIDE-MS2-HEO-11,2026-100D,2026-07-18T03:37:14.813760,14.91148267,.0004726,97.7346,95.9950,70.2616,289.9112,0,U,68983,999,1131,.6419355E-4,.582E-5,0
IRIDE-MS2-HEO-12,2026-100E,2026-07-17T23:00:46.920960,14.90959126,.00057239,97.7338,95.7517,72.6868,287.4976,0,U,68984,999,1128,.58691169E-4,.525E-5,0
IRIDE-MS2-HEO-13,2026-100F,2026-07-17T23:56:07.580544,14.91669389,.00031844,97.7329,95.8777,54.1193,306.0321,0,U,68985,999,1129,.22319681E-3,.2188E-4,0
IRIDE-MS2-HEO-14,2026-100G,2026-07-18T03:04:04.906848,14.91617875,.00032013,97.7325,96.0081,39.1930,320.9520,0,U,68986,999,1131,.90421811E-4,.853E-5,0
